PROMETHEUS 2-3          
1 41855U 16067H   25157.83663446  .00033995  00000+0  64594-3 0  9992
2 41855  98.0722  10.0302 0004041 256.6966 103.3832 15.48197266469983
CORVUS BC2              
1 42846U 17042X   25157.51392078  .00001953  00000+0  14953-3 0  9995
2 42846  97.3710 330.2511 0013381 320.0401  39.9839 15.02912771430579
CORVUS BC1              
1 42847U 17042Y   25157.43241917  .00003345  00000+0  25144-3 0  9993
2 42847  97.3759 330.7013 0011993 293.0908  66.9053 15.03163572430580
MIRATA                  
1 43015U 17073C   25157.45898081  .00053695  00000+0  87360-3 0  9998
2 43015  97.5399  52.1471 0084157  97.1001 263.9828 15.48477920410325
MAKERSAT 0              
1 43016U 17073D   25157.63621267  .00009991  00000+0  40160-3 0  9996
2 43016  97.5200  35.8491 0148054 149.8744 211.1109 15.15514306409298
SIRION PATHFINDER-2     
1 43759U 18099B   25157.86433953  .00003593  00000+0  22550-3 0  9992
2 43759  97.4779 210.8555 0010771 146.9370 213.2535 15.09871967355901
CORVUS BC4              
1 43767U 18099K   25157.56157722  .00003609  00000+0  23612-3 0  9993
2 43767  97.4587 206.3928 0008495 205.0311 155.0507 15.08355119355708
MOVE-II                 
1 43780U 18099Y   25157.48179351  .00209386  00000+0  13686-2 0  9990
2 43780  97.4647 232.8706 0006118 189.8990 170.2155 15.75203179357319
SPACEBEE-7              
1 43816U 18099BL  25157.14727197  .00025118  00000+0  71338-3 0  9998
2 43816  97.4961 227.3113 0007733 126.3407 233.8551 15.36149780356276
SHIELDS 1               
1 43850U 18104B   25157.61761671  .00024303  00000+0  28886-3 0  9995
2 43850  85.0159  38.6371 0008173 138.1788 222.0101 15.60962428360991
SONATE                  
1 44400U 19038Q   25157.81574695  .00250664  26073-4  71531-3 0  9993
2 44400  97.6888 184.4679 0006627 208.8198 151.2710 15.93222248329139
DUCHIFAT-3              
1 44854U 19089C   25157.78370967  .00033684  00000+0  66259-3 0  9993
2 44854  36.9442  12.9727 0005092 295.4221  64.6008 15.46343958302517
M2 PATHFINDER           
1 45727U 20037E   25157.47480874  .00001512  00000+0  11942-3 0  9997
2 45727  97.8117 340.1048 0012602 347.7460  12.3456 15.02180968269044
NETSAT-4                
1 46504U 20068U   25157.40441484  .00008643  00000+0  29706-3 0  9991
2 46504  97.8442 135.0533 0006404 198.0394 162.0619 15.30352653258062
NETSAT-3                
1 46505U 20068V   25157.39386709  .00008414  00000+0  30281-3 0  9994
2 46505  97.8444 133.9911 0005774 210.7549 149.3352 15.28861109258021
NETSAT-1                
1 46506U 20068W   25157.37101518  .00005988  00000+0  24949-3 0  9993
2 46506  97.8472 131.8176 0005017 230.1141 129.9654 15.24116460257877
NETSAT-2                
1 46507U 20068X   25157.39419212  .00009065  00000+0  31531-3 0  9994
2 46507  97.8442 134.5310 0003881 226.3715 133.7203 15.29956404258000
WILDTRACKCUBE-SIMBA     
1 47941U 21022K   25157.85625525  .00021708  00000+0  45673-3 0  9995
2 47941  97.4234  62.3290 0008081 335.2222  24.8638 15.45284970232771
GRBALPHA                
1 47959U 21022AD  25157.86624487  .01806736  24172-5  12334-2 0  9993
2 47959  97.3977  72.6624 0008684 195.0910 165.0120 16.16572343232275
LEDSAT                  
1 49069U 21073D   25157.48513706  .00052343  00000+0  63578-3 0  9993
2 49069  97.3890 238.8936 0010093  96.8993 263.3413 15.60372476210952
GREENCUBE (IO-117)      
1 53109U 22080E   25157.16678600 -.00000003  00000+0  00000+0 0  9996
2 53109  70.1413  69.0068 0008676   9.9954 350.0878  6.42583924 67904
SITRO-AIS 5 (KATYS)     
1 57176U 23091L   25157.85565920  .00006623  00000+0  31251-3 0  9992
2 57176  97.5586 214.8011 0013212 346.0700  14.0168 15.19727523107161
SITRO-AIS 6 (CHIRKIN)   
1 57192U 23091AC  25157.84287739  .00006922  00000+0  32729-3 0  9991
2 57192  97.5586 214.7990 0013155 345.7755  14.3107 15.19635997107165
SITRO-AIS 8 (ANOKHIN)   
1 57193U 23091AD  25157.81881539  .00007628  00000+0  34609-3 0  9990
2 57193  97.5584 215.2738 0012533 345.8813  14.2070 15.21033752107190
SITRO-AIS 7 (FARTUSHNIY)
1 57194U 23091AE  25157.86430128  .00006114  00000+0  29027-3 0  9997
2 57194  97.5585 214.7601 0013024 346.6377  13.4510 15.19545139107166
SITRO-AIS 10 (BURDAEV)  
1 57199U 23091AK  25157.87188492  .00008742  00000+0  35958-3 0  9996
2 57199  97.5596 217.6349 0007973 330.4520  29.6265 15.24370438107341
SITRO-AIS 9 (SHCHUKIN)  
1 57201U 23091AM  25157.82363300  .00008777  00000+0  36298-3 0  9994
2 57201  97.5592 217.5010 0007973 330.8438  29.2353 15.24184504107337
SITRO-AIS 12 (SMIRENNIY)
1 57204U 23091AQ  25157.80607606  .00008521  00000+0  35043-3 0  9999
2 57204  97.5602 217.7642 0007744 323.7233  36.3478 15.24385276107342
SITRO-AIS 11 (SHEFFER)  
1 57208U 23091AU  25157.82505270  .00008895  00000+0  36348-3 0  9992
2 57208  97.5600 217.8711 0007610 324.0216  36.0508 15.24586851107353
VERONIKA                
1 58261U 23174F   25157.71719434  .00113342  00000+0  94803-3 0  9995
2 58261  97.4121 243.7204 0002030  96.8416 263.3077 15.69650841 88233
ROBUSTA-1E (ENSO)       
1 58470U 23185J   25157.87157210  .00044384  00000+0  64612-3 0  9998
2 58470  97.3740 232.9034 0007931 100.5626 259.6522 15.55583228 84613
SITRO-AIS 25            
1 59066U 24039R   25157.76970272  .00004437  00000+0  37798-3 0  9998
2 59066  95.3750 338.1003 0155313 196.0490 163.5784 14.89092613 68777
SITRO-AIS 26            
1 59067U 24039S   25157.86252869  .00004422  00000+0  37797-3 0  9998
2 59067  95.3753 338.1235 0155489 195.9478 163.6821 14.88947494 68785
SITRO-AIS 27            
1 59068U 24039T   25157.85813357  .00004617  00000+0  39184-3 0  9991
2 59068  95.3753 338.2435 0154783 195.3050 164.3465 14.89270196 68797
SITRO-AIS 28            
1 59071U 24039U   25157.84527241  .00004802  00000+0  40716-3 0  9997
2 59071  95.3753 338.2610 0154649 195.2637 164.3895 14.89311072 68793
GRBBETA                 
1 60237U 24128C   25157.54174127  .00003937  00000+0  30147-3 0  9995
2 60237  61.9915  90.1507 0051772  56.8446 303.7596 15.02605980 49741
OOV-CUBE (TUBSAT-30)    
1 60240U 24128F   25157.53043866  .00002497  00000+0  20954-3 0  9998
2 60240  61.9957  92.9570 0051670  53.6986 306.8859 15.00239127 49708
ROBUSTA-3A (MEDITERRAN*)
1 60243U 24128J   25157.78437804  .00006006  00000+0  42859-3 0  9995
2 60243  61.9884  88.4571 0050496  50.5774 309.9771 15.04596823 49808
LASARSAT                
1 62391U 24247Q   25157.76194877  .00009393  00000+0  37090-3 0  9994
2 62391  44.9844 175.2948 0007296  22.7113 337.4091 15.25837115 25633
CROCUBE                 
1 62394U 24247T   25157.42908159  .00008843  00000+0  34803-3 0  9994
2 62394  44.9800 177.0217 0007820  21.8147 338.3067 15.26012918 25581
